start=new Date('2022-06-01T00:00:00.000Z').valueOf();
sats=[{"TLE_LINE1":"1 45074U 20006AG  22150.78400818 -.00001434  00000-0 -77385-4 0  9992","LAUNCH_DATE":"2020-01-29","CLASSIFICATION_TYPE":"U","GP_ID":"204975990","TIME_SYSTEM":"UTC","COUNTRY_CODE":"US","MEAN_MOTION_DOT":"-0.00001434","MEAN_MOTION":"15.06392731","DECAY_DATE":null,"MEAN_ELEMENT_THEORY":"SGP4","REV_AT_EPOCH":"12890","MEAN_ANOMALY":"290.4812","EPHEMERIS_TYPE":"0","OBJECT_ID":"2020-006AG","OBJECT_NAME":"STARLINK-1172","OBJECT_TYPE":"PAYLOAD","MEAN_MOTION_DDOT":"0.0000000000000","SEMIMAJOR_AXIS":"6925.371","RA_OF_ASC_NODE":"336.7692","APOAPSIS":"548.451","TLE_LINE2":"2 45074  53.0528 336.7692 0001754  69.6365 290.4812 15.06392731128906","ARG_OF_PERICENTER":"69.6365","INCLINATION":"53.0528","REF_FRAME":"TEME","CENTER_NAME":"EARTH","ELEMENT_SET_NO":"999","SITE":"AFETR","NORAD_CAT_ID":"45074","RCS_SIZE":"LARGE","EPOCH":"2022-05-30T18:48:58.306752","PERIOD":"95.593","FILE":"3472994","PERIAPSIS":"546.021","ECCENTRICITY":"0.00017540","BSTAR":"-0.00007738500000"},{"RCS_SIZE":"LARGE","EPOCH":"2022-05-31T05:09:59.835168","PERIOD":"95.593","NORAD_CAT_ID":"45075","SITE":"AFETR","BSTAR":"-0.00004175600000","ECCENTRICITY":"0.00016550","PERIAPSIS":"546.129","FILE":"3474118","ARG_OF_PERICENTER":"71.1896","TLE_LINE2":"2 45075  53.0548 334.8232 0001655  71.1896 288.9273 15.06379919128978","RA_OF_ASC_NODE":"334.8232","APOAPSIS":"548.421","SEMIMAJOR_AXIS":"6925.410","MEAN_MOTION_DDOT":"0.0000000000000","ELEMENT_SET_NO":"999","CENTER_NAME":"EARTH","REF_FRAME":"TEME","INCLINATION":"53.0548","REV_AT_EPOCH":"12897","MEAN_ANOMALY":"288.9273","DECAY_DATE":null,"MEAN_ELEMENT_THEORY":"SGP4","MEAN_MOTION":"15.06379919","OBJECT_TYPE":"PAYLOAD","OBJECT_NAME":"STARLINK-1174","OBJECT_ID":"2020-006AH","EPHEMERIS_TYPE":"0","GP_ID":"205026535","CLASSIFICATION_TYPE":"U","TLE_LINE1":"1 45075U 20006AH  22151.21527587 -.00000903  00000-0 -41756-4 0  9998","LAUNCH_DATE":"2020-01-29","MEAN_MOTION_DOT":"-0.00000903","TIME_SYSTEM":"UTC","COUNTRY_CODE":"US"},{"INCLINATION":"53.0551","REF_FRAME":"TEME","CENTER_NAME":"EARTH","ELEMENT_SET_NO":"999","MEAN_MOTION_DDOT":"0.0000000000000","SEMIMAJOR_AXIS":"6925.387","RA_OF_ASC_NODE":"334.7964","APOAPSIS":"548.360","ARG_OF_PERICENTER":"65.6872","TLE_LINE2":"2 45076  53.0551 334.7964 0001600  65.6872 294.4284 15.06387502128977","FILE":"3474118","PERIAPSIS":"546.144","ECCENTRICITY":"0.00016000","BSTAR":"-0.00000288090000","SITE":"AFETR","NORAD_CAT_ID":"45076","EPOCH":"2022-05-31T05:20:36.636864","RCS_SIZE":"LARGE","PERIOD":"95.593","COUNTRY_CODE":"US","TIME_SYSTEM":"UTC","MEAN_MOTION_DOT":"-0.00000324","TLE_LINE1":"1 45076U 20006AJ  22151.22264626 -.00000324  00000-0 -28809-5 0  9994","LAUNCH_DATE":"2020-01-29","CLASSIFICATION_TYPE":"U","GP_ID":"205026785","EPHEMERIS_TYPE":"0","OBJECT_ID":"2020-006AJ","OBJECT_NAME":"STARLINK-1180","OBJECT_TYPE":"PAYLOAD","MEAN_MOTION":"15.06387502","DECAY_DATE":null,"MEAN_ELEMENT_THEORY":"SGP4","REV_AT_EPOCH":"12897","MEAN_ANOMALY":"294.4284"},{"ECCENTRICITY":"0.00015340","BSTAR":"-0.00019279000000","FILE":"3474118","PERIAPSIS":"546.176","EPOCH":"2022-05-30T23:24:59.256576","RCS_SIZE":"LARGE","PERIOD":"95.593","SITE":"AFETR","NORAD_CAT_ID":"45078","CENTER_NAME":"EARTH","ELEMENT_SET_NO":"999","INCLINATION":"53.0552","REF_FRAME":"TEME","RA_OF_ASC_NODE":"335.9156","APOAPSIS":"548.301","ARG_OF_PERICENTER":"62.1219","TLE_LINE2":"2 45078  53.0552 335.9156 0001534  62.1219 297.9925 15.06391750128924","SEMIMAJOR_AXIS":"6925.374","MEAN_MOTION_DDOT":"0.0000000000000","OBJECT_TYPE":"PAYLOAD","OBJECT_NAME":"STARLINK-1177","EPHEMERIS_TYPE":"0","OBJECT_ID":"2020-006AL","REV_AT_EPOCH":"12892","MEAN_ANOMALY":"297.9925","MEAN_MOTION":"15.06391750","DECAY_DATE":null,"MEAN_ELEMENT_THEORY":"SGP4","COUNTRY_CODE":"US","TIME_SYSTEM":"UTC","MEAN_MOTION_DOT":"-0.00003151","CLASSIFICATION_TYPE":"U","GP_ID":"205027532","TLE_LINE1":"1 45078U 20006AL  22150.97568584 -.00003151  00000-0 -19279-3 0  9997","LAUNCH_DATE":"2020-01-29"},{"SEMIMAJOR_AXIS":"6925.348","MEAN_MOTION_DDOT":"0.0000000000000","TLE_LINE2":"2 45079  53.0546 334.7967 0001395  99.0922 261.0225 15.06400334128968","ARG_OF_PERICENTER":"99.0922","RA_OF_ASC_NODE":"334.7967","APOAPSIS":"548.179","REF_FRAME":"TEME","INCLINATION":"53.0546","ELEMENT_SET_NO":"999","CENTER_NAME":"EARTH","NORAD_CAT_ID":"45079","SITE":"AFETR","RCS_SIZE":"LARGE","EPOCH":"2022-05-31T05:13:55.157664","PERIOD":"95.592","PERIAPSIS":"546.246","FILE":"3474118","BSTAR":"0.00000146520000","ECCENTRICITY":"0.00013950","LAUNCH_DATE":"2020-01-29","TLE_LINE1":"1 45079U 20006AM  22151.21799951 -.00000260  00000-0  14652-5 0  9999","GP_ID":"205027282","CLASSIFICATION_TYPE":"U","MEAN_MOTION_DOT":"-0.00000260","TIME_SYSTEM":"UTC","COUNTRY_CODE":"US","DECAY_DATE":null,"MEAN_ELEMENT_THEORY":"SGP4","MEAN_MOTION":"15.06400334","REV_AT_EPOCH":"12896","MEAN_ANOMALY":"261.0225","OBJECT_ID":"2020-006AM","EPHEMERIS_TYPE":"0","OBJECT_NAME":"STARLINK-1149","OBJECT_TYPE":"PAYLOAD"},{"MEAN_ANOMALY":"306.1502","REV_AT_EPOCH":"12889","MEAN_MOTION":"15.06388425","MEAN_ELEMENT_THEORY":"SGP4","DECAY_DATE":null,"OBJECT_NAME":"STARLINK-1153","OBJECT_TYPE":"PAYLOAD","EPHEMERIS_TYPE":"0","OBJECT_ID":"2020-006AN","CLASSIFICATION_TYPE":"U","GP_ID":"205026036","TLE_LINE1":"1 45080U 20006AN  22150.69555623 -.00002339  00000-0 -13822-3 0  9994","LAUNCH_DATE":"2020-01-29","TIME_SYSTEM":"UTC","COUNTRY_CODE":"US","MEAN_MOTION_DOT":"-0.00002339","PERIOD":"95.593","RCS_SIZE":"LARGE","EPOCH":"2022-05-30T16:41:36.058272","SITE":"AFETR","NORAD_CAT_ID":"45080","ECCENTRICITY":"0.00016670","BSTAR":"-0.00013822000000","FILE":"3474118","PERIAPSIS":"546.095","APOAPSIS":"548.403","RA_OF_ASC_NODE":"337.1608","TLE_LINE2":"2 45080  53.0553 337.1608 0001667  53.9641 306.1502 15.06388425128893","ARG_OF_PERICENTER":"53.9641","MEAN_MOTION_DDOT":"0.0000000000000","SEMIMAJOR_AXIS":"6925.384","CENTER_NAME":"EARTH","ELEMENT_SET_NO":"999","INCLINATION":"53.0553","REF_FRAME":"TEME"},{"REV_AT_EPOCH":"12897","MEAN_ANOMALY":"290.5447","DECAY_DATE":null,"MEAN_ELEMENT_THEORY":"SGP4","MEAN_MOTION":"15.06395538","OBJECT_TYPE":"PAYLOAD","OBJECT_NAME":"STARLINK-1151","OBJECT_ID":"2020-006AP","EPHEMERIS_TYPE":"0","GP_ID":"205026286","CLASSIFICATION_TYPE":"U","LAUNCH_DATE":"2020-01-29","TLE_LINE1":"1 45081U 20006AP  22151.20420800 -.00001852  00000-0 -10547-3 0  9991","MEAN_MOTION_DOT":"-0.00001852","TIME_SYSTEM":"UTC","COUNTRY_CODE":"US","RCS_SIZE":"LARGE","EPOCH":"2022-05-31T04:54:03.571200","PERIOD":"95.592","NORAD_CAT_ID":"45081","SITE":"AFETR","BSTAR":"-0.00010547000000","ECCENTRICITY":"0.00017080","PERIAPSIS":"546.044","FILE":"3474118","TLE_LINE2":"2 45081  53.0552 334.8842 0001708  69.5725 290.5447 15.06395538128975","ARG_OF_PERICENTER":"69.5725","RA_OF_ASC_NODE":"334.8842","APOAPSIS":"548.410","SEMIMAJOR_AXIS":"6925.362","MEAN_MOTION_DDOT":"0.0000000000000","ELEMENT_SET_NO":"999","CENTER_NAME":"EARTH","REF_FRAME":"TEME","INCLINATION":"53.0552"},{"SITE":"AFETR","NORAD_CAT_ID":"45082","RCS_SIZE":"LARGE","EPOCH":"2022-05-30T22:15:59.533632","PERIOD":"95.593","FILE":"3474118","PERIAPSIS":"546.057","ECCENTRICITY":"0.00017490","BSTAR":"-0.00014465000000","MEAN_MOTION_DDOT":"0.0000000000000","SEMIMAJOR_AXIS":"6925.403","APOAPSIS":"548.479","RA_OF_ASC_NODE":"336.1244","TLE_LINE2":"2 45082  53.0574 336.1244 0001749  55.6347 304.4807 15.06382170128920","ARG_OF_PERICENTER":"55.6347","INCLINATION":"53.0574","REF_FRAME":"TEME","CENTER_NAME":"EARTH","ELEMENT_SET_NO":"999","MEAN_MOTION":"15.06382170","MEAN_ELEMENT_THEORY":"SGP4","DECAY_DATE":null,"REV_AT_EPOCH":"12892","MEAN_ANOMALY":"304.4807","EPHEMERIS_TYPE":"0","OBJECT_ID":"2020-006AQ","OBJECT_NAME":"STARLINK-1160","OBJECT_TYPE":"PAYLOAD","TLE_LINE1":"1 45082U 20006AQ  22150.92777238 -.00002434  00000-0 -14465-3 0  9990","LAUNCH_DATE":"2020-01-29","CLASSIFICATION_TYPE":"U","GP_ID":"205027033","COUNTRY_CODE":"US","TIME_SYSTEM":"UTC","MEAN_MOTION_DOT":"-0.00002434"},{"REV_AT_EPOCH":"12866","MEAN_ANOMALY":"294.3580","MEAN_ELEMENT_THEORY":"SGP4","DECAY_DATE":null,"MEAN_MOTION":"15.06397795","OBJECT_NAME":"STARLINK-1190","OBJECT_TYPE":"PAYLOAD","OBJECT_ID":"2020-006AR","EPHEMERIS_TYPE":"0","GP_ID":"205027782","CLASSIFICATION_TYPE":"U","TLE_LINE1":"1 45083U 20006AR  22151.02543612  .00000072  00000-0  23755-4 0  9997","LAUNCH_DATE":"2020-01-29","MEAN_MOTION_DOT":"0.00000072","TIME_SYSTEM":"UTC","COUNTRY_CODE":"US","EPOCH":"2022-05-31T00:36:37.680768","RCS_SIZE":"LARGE","PERIOD":"95.592","NORAD_CAT_ID":"45083","SITE":"AFETR","BSTAR":"0.00002375500000","ECCENTRICITY":"0.00014500","PERIAPSIS":"546.216","FILE":"3474118","TLE_LINE2":"2 45083  53.0550 355.6962 0001450  65.7560 294.3580 15.06397795128661","ARG_OF_PERICENTER":"65.7560","APOAPSIS":"548.224","RA_OF_ASC_NODE":"355.6962","MEAN_MOTION_DDOT":"0.0000000000000","SEMIMAJOR_AXIS":"6925.355","ELEMENT_SET_NO":"999","CENTER_NAME":"EARTH","REF_FRAME":"TEME","INCLINATION":"53.0550"},{"OBJECT_TYPE":"PAYLOAD","OBJECT_NAME":"STARLINK-1173","OBJECT_ID":"2020-006AS","EPHEMERIS_TYPE":"0","REV_AT_EPOCH":"12919","MEAN_ANOMALY":"289.1405","DECAY_DATE":null,"MEAN_ELEMENT_THEORY":"SGP4","MEAN_MOTION":"15.06390196","MEAN_MOTION_DOT":"-0.00001279","TIME_SYSTEM":"UTC","COUNTRY_CODE":"US","GP_ID":"204975243","CLASSIFICATION_TYPE":"U","LAUNCH_DATE":"2020-01-29","TLE_LINE1":"1 45084U 20006AS  22150.80796513 -.00001279  00000-0 -67000-4 0  9996","BSTAR":"-0.00006700000000","ECCENTRICITY":"0.00014670","PERIAPSIS":"546.228","FILE":"3472994","PERIOD":"95.593","RCS_SIZE":"LARGE","EPOCH":"2022-05-30T19:23:28.187232","NORAD_CAT_ID":"45084","SITE":"AFETR","ELEMENT_SET_NO":"999","CENTER_NAME":"EARTH","REF_FRAME":"TEME","INCLINATION":"53.0566","TLE_LINE2":"2 45084  53.0566 316.6655 0001467  70.9743 289.1405 15.06390196129199","ARG_OF_PERICENTER":"70.9743","RA_OF_ASC_NODE":"316.6655","APOAPSIS":"548.260","MEAN_MOTION_DDOT":"0.0000000000000","SEMIMAJOR_AXIS":"6925.379"}];
